[{"OBJECT_NAME":"STARLINK-31022","OBJECT_ID":"2023-203R","EPOCH":"2026-03-09T09:53:47.839200","MEAN_MOTION":15.27577525,"ECCENTRICITY":0.00010283,"INCLINATION":43.0034,"RA_OF_ASC_NODE":72.5499,"ARG_OF_PERICENTER":255.0909,"MEAN_ANOMALY":104.9828,"EPHEMERIS_TYPE":0,"CLASSIFICATION_TYPE":"U","NORAD_CAT_ID":58633,"ELEMENT_SET_NO":999,"REV_AT_EPOCH":12470,"BSTAR":-3.839622e-6,"MEAN_MOTION_DOT":-3.68e-6,"MEAN_MOTION_DDOT":0},{"OBJECT_NAME":"OBJECT L","OBJECT_ID":"2024-024L","EPOCH":"2026-03-09T22:36:05.522976","MEAN_MOTION":15.29373491,"ECCENTRICITY":0.00073185,"INCLINATION":97.3169,"RA_OF_ASC_NODE":137.7038,"ARG_OF_PERICENTER":167.6369,"MEAN_ANOMALY":192.5052,"EPHEMERIS_TYPE":0,"CLASSIFICATION_TYPE":"U","NORAD_CAT_ID":58927,"ELEMENT_SET_NO":999,"REV_AT_EPOCH":9318,"BSTAR":0.00043092344,"MEAN_MOTION_DOT":0.00012217,"MEAN_MOTION_DDOT":0}]
